CCSDS_OMM_VERS = 2.0
CREATION_DATE  = 
ORIGINATOR     = 

OBJECT_NAME    = 2026-027F
OBJECT_ID      = 2026-027F
CENTER_NAME    = EARTH
REF_FRAME      = TEME
TIME_SYSTEM    = UTC
MEAN_ELEMENT_THEORY = SGP/SGP4

EPOCH          = 2026-02-14T19:42:20.405664
MEAN_MOTION    = 15.17704665
ECCENTRICITY   = .0009829
INCLINATION    = 97.4886
RA_OF_ASC_NODE = 175.0903
ARG_OF_PERICENTER = 291.2942
MEAN_ANOMALY   = 68.7242

EPHEMERIS_TYPE = 0
CLASSIFICATION_TYPE = U
NORAD_CAT_ID   = 67751
ELEMENT_SET_NO = 999
REV_AT_EPOCH   = 39
BSTAR          = .64884E-3
MEAN_MOTION_DOT = .13042E-3
MEAN_MOTION_DDOT = 0

CCSDS_OMM_VERS = 2.0
CREATION_DATE  = 
ORIGINATOR     = 

OBJECT_NAME    = 2026-027G
OBJECT_ID      = 2026-027G
CENTER_NAME    = EARTH
REF_FRAME      = TEME
TIME_SYSTEM    = UTC
MEAN_ELEMENT_THEORY = SGP/SGP4

EPOCH          = 2026-02-14T19:42:14.097600
MEAN_MOTION    = 15.17738314
ECCENTRICITY   = .0009075
INCLINATION    = 97.4880
RA_OF_ASC_NODE = 175.0900
ARG_OF_PERICENTER = 294.6592
MEAN_ANOMALY   = 65.3697

EPHEMERIS_TYPE = 0
CLASSIFICATION_TYPE = U
NORAD_CAT_ID   = 67752
ELEMENT_SET_NO = 999
REV_AT_EPOCH   = 39
BSTAR          = .44075E-3
MEAN_MOTION_DOT = .884E-4
MEAN_MOTION_DDOT = 0

CCSDS_OMM_VERS = 2.0
CREATION_DATE  = 
ORIGINATOR     = 

OBJECT_NAME    = 2026-027J
OBJECT_ID      = 2026-027J
CENTER_NAME    = EARTH
REF_FRAME      = TEME
TIME_SYSTEM    = UTC
MEAN_ELEMENT_THEORY = SGP/SGP4

EPOCH          = 2026-02-14T19:41:13.714368
MEAN_MOTION    = 15.59200713
ECCENTRICITY   = .0268634
INCLINATION    = 97.5129
RA_OF_ASC_NODE = 175.2767
ARG_OF_PERICENTER = 330.1072
MEAN_ANOMALY   = 28.5066

EPHEMERIS_TYPE = 0
CLASSIFICATION_TYPE = U
NORAD_CAT_ID   = 67754
ELEMENT_SET_NO = 999
REV_AT_EPOCH   = 31
BSTAR          = .13452E-2
MEAN_MOTION_DOT = .691088E-2
MEAN_MOTION_DDOT = .22986E-5

CCSDS_OMM_VERS = 2.0
CREATION_DATE  = 
ORIGINATOR     = 

OBJECT_NAME    = CREW DRAGON 12
OBJECT_ID      = 2026-031A
CENTER_NAME    = EARTH
REF_FRAME      = TEME
TIME_SYSTEM    = UTC
MEAN_ELEMENT_THEORY = SGP/SGP4

EPOCH          = 2026-02-13T14:39:05.346720
MEAN_MOTION    = 16.18051748
ECCENTRICITY   = .0025866
INCLINATION    = 51.6318
RA_OF_ASC_NODE = 191.8838
ARG_OF_PERICENTER = 226.1048
MEAN_ANOMALY   = 133.7834

EPHEMERIS_TYPE = 0
CLASSIFICATION_TYPE = U
NORAD_CAT_ID   = 67796
ELEMENT_SET_NO = 999
REV_AT_EPOCH   = 3
BSTAR          = .25516E-3
MEAN_MOTION_DOT = .465694E-2
MEAN_MOTION_DDOT = .11779E-4

