2026-027F               
1 67751U 26027F   26045.82106951  .00013042  00000+0  64884-3 0  9994
2 67751  97.4886 175.0903 0009829 291.2942  68.7242 15.17704665   395
2026-027G               
1 67752U 26027G   26045.82099650  .00008840  00000+0  44075-3 0  9992
2 67752  97.4880 175.0900 0009075 294.6592  65.3697 15.17738314   393
2026-027J               
1 67754U 26027J   26045.82029762  .00691088  22986-5  13452-2 0  9990
2 67754  97.5129 175.2767 0268634 330.1072  28.5066 15.59200713   318
CREW DRAGON 12          
1 67796U 26031A   26044.61047855  .00465694  11779-4  25516-3 0  9994
2 67796  51.6318 191.8838 0025866 226.1048 133.7834 16.18051748    32
